KUIPER-00140            
1 65965U 25228U   26192.93268381  .00000180  00000+0  52555-4 0  9994
2 65965  51.8972 156.2602 0000702  77.1462 282.9578 14.79931415 41834
KUIPER-00141            
1 65966U 25228V   26192.26279865  .00001445  00000+0  21858-3 0  9996
2 65966  51.9020 154.2771 0000743  72.6160 287.4884 14.79929535 41802
KUIPER-00146            
1 65967U 25228W   26191.34844979  .00000974  00000+0  15675-3 0  9995
2 65967  51.9012 160.8304 0000754  60.3221 299.7816 14.79929747 41630
KUIPER-00149            
1 65968U 25228X   26192.87324972  .00001501  00000+0  22599-3 0  9991
2 65968  51.8996 148.9740 0000781  82.9864 277.1187 14.79915633 41938
KUIPER-00154            
1 65969U 25228Y   26192.23440569 -.00000555  00000+0 -43858-4 0  9995
2 65969  51.8982 149.2897 0000769  71.5000 288.6046 14.79928101 41871
KUIPER-00157            
1 65970U 25228Z   26192.90131309  .00001589  00000+0  23064-3 0  9992
2 65970  51.9009 148.9202 0001028  42.4788 317.6254 14.81193297 41933
KUIPER-00144            
1 67133U 25301A   26192.48577480  .00001238  00000+0  19141-3 0  9996
2 67133  51.9008 228.1930 0000320  86.3520 273.7479 14.79934210 32205
KUIPER-00164            
1 67134U 25301B   26192.79305264  .00000857  00000+0  15247-3 0  9999
2 67134  51.9053 239.1667 0001703 330.8066  29.2799 14.76500157 32253
KUIPER-00175            
1 67135U 25301C   26192.91670139 -.00021017  00000+0 -26886-2 0  9993
2 67135  51.8978 221.2521 0000425  73.2875 212.9940 14.80670705  5583
KUIPER-00179            
1 67136U 25301D   26192.13734568  .00000726  00000+0  12421-3 0  9998
2 67136  51.8962 239.7045 0000466  87.0454 273.0562 14.79927791 32196
KUIPER-00181            
1 67137U 25301E   26192.59655367  .00001329  00000+0  20310-3 0  9994
2 67137  51.9024 250.2116 0001229  61.2393 298.8693 14.79976033 32067
KUIPER-00183            
1 67138U 25301F   26192.43807648  .00001661  00000+0  18297-3 0  9999
2 67138  51.8969 223.5205 0009552 113.5034 246.6939 14.92761892 32432
KUIPER-00184            
1 67139U 25301G   26192.44659807  .00001314  00000+0  20127-3 0  9993
2 67139  51.8982 233.3405 0000227  86.3030 273.7959 14.79929871 32400
KUIPER-00186            
1 67140U 25301H   26192.15762817  .00001429  00000+0  21647-3 0  9994
2 67140  51.9011 252.1644 0001104  85.1546 274.9542 14.79933263 31842
KUIPER-00187            
1 67141U 25301J   26191.14199264  .00001027  00000+0  16378-3 0  9992
2 67141  51.9024 259.1774 0000548  92.4678 267.6348 14.79921052 31651
KUIPER-00188            
1 67142U 25301K   26192.42633002  .00001008  00000+0  16125-3 0  9997
2 67142  51.8980 221.0809 0000814 109.5722 250.5329 14.79935320 32299
